{"type": "FeatureCollection", "features": [ {"type": "Feature", "properties": {"norad_id": 33867, "name": "IRIDIUM 33 DEB", "group": "iridium-33-debris", "lat": 34.586990412366646, "lon": -3.301924375063473, "alt_km": 393.8493502723404, "timestamp": "2025-12-04T19:33:59.984867+00:00", "meta": {"OBJECT_NAME": "IRIDIUM 33 DEB", "OBJECT_ID": "1997-051AL", "EPOCH": "2025-12-04T00:53:10.204224", "MEAN_MOTION": 15.54633493, "ECCENTRICITY": 0.00123891, "INCLINATION": 86.3627, "RA_OF_ASC_NODE": 354.5807, "ARG_OF_PERICENTER": 97.6739, "MEAN_ANOMALY": 262.5931, "EPHEMERIS_TYPE": 0, "CLASSIFICATION_TYPE": "U", "NORAD_CAT_ID": 33867, "ELEMENT_SET_NO": 999, "REV_AT_EPOCH": 89375, "BSTAR": 0.010164075, "MEAN_MOTION_DOT": 0.00736718, "MEAN_MOTION_DDOT": 0}, "tle": {"line1": "1 33867U 97051AL  25338.03692366  .00736718  00000+0  10164-1 0  9999", "line2": "2 33867  86.3627 354.5807 0012389  97.6739 262.5931 15.54633493893750"}}, "geometry": {"type": "Point", "coordinates": [-3.301924375063473, 34.586990412366646]}}, {"type": "Feature", "properties": {"norad_id": 33870, "name": "IRIDIUM 33 DEB", "group": "iridium-33-debris", "lat": 33.806969196947534, "lon": -120.77488312307997, "alt_km": 729.7024736591638, "timestamp": "2025-12-04T19:33:59.984876+00:00", "meta": {"OBJECT_NAME": "IRIDIUM 33 DEB", "OBJECT_ID": "1997-051AP", "EPOCH": "2025-12-04T05:51:01.645056", "MEAN_MOTION": 14.45776781, "ECCENTRICITY": 0.00205582, "INCLINATION": 86.3758, "RA_OF_ASC_NODE": 61.9023, "ARG_OF_PERICENTER": 206.2937, "MEAN_ANOMALY": 207.2345, "EPHEMERIS_TYPE": 0, "CLASSIFICATION_TYPE": "U", "NORAD_CAT_ID": 33870, "ELEMENT_SET_NO": 999, "REV_AT_EPOCH": 88014, "BSTAR": 0.0019702022, "MEAN_MOTION_DOT": 7.022e-05, "MEAN_MOTION_DDOT": 0}, "tle": {"line1": "1 33870U 97051AP  25338.24376904  .00007022  00000+0  19702-2 0  9990", "line2": "2 33870  86.3758  61.9023 0020558 206.2937 207.2345 14.45776781880144"}}, "geometry": {"type": "Point", "coordinates": [-120.77488312307997, 33.806969196947534]}}, {"type": "Feature", "properties": {"norad_id": 33881, "name": "IRIDIUM 33 DEB", "group": "iridium-33-debris", "lat": 70.35535145477415, "lon": 120.38098292939429, "alt_km": 725.7275399085329, "timestamp": "2025-12-04T19:33:59.984885+00:00", "meta": {"OBJECT_NAME": "IRIDIUM 33 DEB", "OBJECT_ID": "1997-051BA", "EPOCH": "2025-12-03T08:52:49.327968", "MEAN_MOTION": 14.56290168, "ECCENTRICITY": 0.0061157, "INCLINATION": 86.3865, "RA_OF_ASC_NODE": 110.812, "ARG_OF_PERICENTER": 205.0667, "MEAN_ANOMALY": 213.9917, "EPHEMERIS_TYPE": 0, "CLASSIFICATION_TYPE": "U", "NORAD_CAT_ID": 33881, "ELEMENT_SET_NO": 999, "REV_AT_EPOCH": 87364, "BSTAR": 0.002603, "MEAN_MOTION_DOT": 0.00011848, "MEAN_MOTION_DDOT": 0}, "tle": {"line1": "1 33881U 97051BA  25337.37001537  .00011848  00000+0  26030-2 0  9995", "line2": "2 33881  86.3865 110.8120 0061157 205.0667 213.9917 14.56290168873642"}}, "geometry": {"type": "Point", "coordinates": [120.38098292939429, 70.35535145477415]}}, {"type": "Feature", "properties": {"norad_id": 33884, "name": "IRIDIUM 33 DEB", "group": "iridium-33-debris", "lat": 35.755553028011015, "lon": -169.2245054218317, "alt_km": 642.3660120042496, "timestamp": "2025-12-04T19:33:59.984894+00:00", "meta": {"OBJECT_NAME": "IRIDIUM 33 DEB", "OBJECT_ID": "1997-051BD", "EPOCH": "2025-12-04T02:54:00.284832", "MEAN_MOTION": 14.77168398, "ECCENTRICITY": 0.00106133, "INCLINATION": 86.3697, "RA_OF_ASC_NODE": 13.7089, "ARG_OF_PERICENTER": 355.5376, "MEAN_ANOMALY": 57.9595, "EPHEMERIS_TYPE": 0, "CLASSIFICATION_TYPE": "U", "NORAD_CAT_ID": 33884, "ELEMENT_SET_NO": 999, "REV_AT_EPOCH": 88720, "BSTAR": 0.0029953103, "MEAN_MOTION_DOT": 0.00021274, "MEAN_MOTION_DDOT": 0}, "tle": {"line1": "1 33884U 97051BD  25338.12083663  .00021274  00000+0  29953-2 0  9993", "line2": "2 33884  86.3697  13.7089 0010613 355.5376  57.9595 14.77168398887209"}}, "geometry": {"type": "Point", "coordinates": [-169.2245054218317, 35.755553028011015]}}, {"type": "Feature", "properties": {"norad_id": 33886, "name": "IRIDIUM 33 DEB", "group": "iridium-33-debris", "lat": 14.726214634278112, "lon": -110.38877765824311, "alt_km": 775.1389161278057, "timestamp": "2025-12-04T19:33:59.984903+00:00", "meta": {"OBJECT_NAME": "IRIDIUM 33 DEB", "OBJECT_ID": "1997-051BF", "EPOCH": "2025-12-04T07:22:11.807904", "MEAN_MOTION": 14.36036428, "ECCENTRICITY": 0.0012068, "INCLINATION": 86.3832, "RA_OF_ASC_NODE": 70.7776, "ARG_OF_PERICENTER": 274.1551, "MEAN_ANOMALY": 145.5306, "EPHEMERIS_TYPE": 0, "CLASSIFICATION_TYPE": "U", "NORAD_CAT_ID": 33886, "ELEMENT_SET_NO": 999, "REV_AT_EPOCH": 87931, "BSTAR": 0.00041727262, "MEAN_MOTION_DOT": 1.233e-05, "MEAN_MOTION_DDOT": 0}, "tle": {"line1": "1 33886U 97051BF  25338.30708111  .00001233  00000+0  41727-3 0  9994", "line2": "2 33886  86.3832  70.7776 0012068 274.1551 145.5306 14.36036428879315"}}, "geometry": {"type": "Point", "coordinates": [-110.38877765824311, 14.726214634278112]}}, {"type": "Feature", "properties": {"norad_id": 33887, "name": "IRIDIUM 33 DEB", "group": "iridium-33-debris", "lat": 67.81345157354653, "lon": 15.924386592796381, "alt_km": 763.9698550362773, "timestamp": "2025-12-04T19:33:59.984913+00:00", "meta": {"OBJECT_NAME": "IRIDIUM 33 DEB", "OBJECT_ID": "1997-051BG", "EPOCH": "2025-12-04T02:49:23.956896", "MEAN_MOTION": 14.37209414, "ECCENTRICITY": 0.00040371, "INCLINATION": 86.3051, "RA_OF_ASC_NODE": 7.1078, "ARG_OF_PERICENTER": 267.9412, "MEAN_ANOMALY": 152.9243, "EPHEMERIS_TYPE": 0, "CLASSIFICATION_TYPE": "U", "NORAD_CAT_ID": 33887, "ELEMENT_SET_NO": 999, "REV_AT_EPOCH": 88041, "BSTAR": 0.00026791584, "MEAN_MOTION_DOT": 8.17e-06, "MEAN_MOTION_DDOT": 0}, "tle": {"line1": "1 33887U 97051BG  25338.11763839  .00000817  00000+0  26792-3 0  9994", "line2": "2 33887  86.3051   7.1078 0004037 267.9412 152.9243 14.37209414880414"}}, "geometry": {"type": "Point", "coordinates": [15.924386592796381, 67.81345157354653]}}, {"type": "Feature", "properties": {"norad_id": 33953, "name": "IRIDIUM 33 DEB", "group": "iridium-33-debris", "lat": 50.19588834267656, "lon": -127.13191312925612, "alt_km": 691.1093929931803, "timestamp": "2025-12-04T19:33:59.984922+00:00", "meta": {"OBJECT_NAME": "IRIDIUM 33 DEB", "OBJECT_ID": "1997-051BN", "EPOCH": "2025-12-04T06:01:08.832288", "MEAN_MOTION": 14.55185783, "ECCENTRICITY": 0.00185112, "INCLINATION": 86.3856, "RA_OF_ASC_NODE": 57.4632, "ARG_OF_PERICENTER": 128.7248, "MEAN_ANOMALY": 285.6216, "EPHEMERIS_TYPE": 0, "CLASSIFICATION_TYPE": "U", "NORAD_CAT_ID": 33953, "ELEMENT_SET_NO": 999, "REV_AT_EPOCH": 88180, "BSTAR": 0.0031546593, "MEAN_MOTION_DOT": 0.00013702, "MEAN_MOTION_DDOT": 0}, "tle": {"line1": "1 33953U 97051BN  25338.25079667  .00013702  00000+0  31547-2 0  9992", "line2": "2 33953  86.3856  57.4632 0018511 128.7248 285.6216 14.55185783881808"}}, "geometry": {"type": "Point", "coordinates": [-127.13191312925612, 50.19588834267656]}}, {"type": "Feature", "properties": {"norad_id": 33960, "name": "IRIDIUM 33 DEB", "group": "iridium-33-debris", "lat": 9.228042158583234, "lon": 112.63785562061108, "alt_km": 617.5309952745811, "timestamp": "2025-12-04T19:33:59.984931+00:00", "meta": {"OBJECT_NAME": "IRIDIUM 33 DEB", "OBJECT_ID": "1997-051BV", "EPOCH": "2025-12-04T08:00:50.814144", "MEAN_MOTION": 14.84493479, "ECCENTRICITY": 0.00070442, "INCLINATION": 86.2531, "RA_OF_ASC_NODE": 293.4746, "ARG_OF_PERICENTER": 74.0008, "MEAN_ANOMALY": 45.7445, "EPHEMERIS_TYPE": 0, "CLASSIFICATION_TYPE": "U", "NORAD_CAT_ID": 33960, "ELEMENT_SET_NO": 999, "REV_AT_EPOCH": 88742, "BSTAR": 0.0078775525, "MEAN_MOTION_DOT": 0.00066968, "MEAN_MOTION_DDOT": 0}, "tle": {"line1": "1 33960U 97051BV  25338.33392146  .00066968  00000+0  78776-2 0  9996", "line2": "2 33960  86.2531 293.4746 0007044  74.0008  45.7445 14.84493479887428"}}, "geometry": {"type": "Point", "coordinates": [112.63785562061108, 9.228042158583234]}}, {"type": "Feature", "properties": {"norad_id": 33966, "name": "IRIDIUM 33 DEB", "group": "iridium-33-debris", "lat": 57.561814845439386, "lon": 55.12336752616175, "alt_km": 725.9717602784676, "timestamp": "2025-12-04T19:33:59.984941+00:00", "meta": {"OBJECT_NAME": "IRIDIUM 33 DEB", "OBJECT_ID": "1997-051CB", "EPOCH": "2025-12-04T06:20:38.455872", "MEAN_MOTION": 14.4953936, "ECCENTRICITY": 0.00064602, "INCLINATION": 86.3932, "RA_OF_ASC_NODE": 49.664, "ARG_OF_PERICENTER": 218.4908, "MEAN_ANOMALY": 206.1613, "EPHEMERIS_TYPE": 0, "CLASSIFICATION_TYPE": "U", "NORAD_CAT_ID": 33966, "ELEMENT_SET_NO": 999, "REV_AT_EPOCH": 88319, "BSTAR": 0.001297017, "MEAN_MOTION_DOT": 4.993e-05, "MEAN_MOTION_DDOT": 0}, "tle": {"line1": "1 33966U 97051CB  25338.26433398  .00004993  00000+0  12970-2 0  9993", "line2": "2 33966  86.3932  49.6640 0006460 218.4908 206.1613 14.49539360883199"}}, "geometry": {"type": "Point", "coordinates": [55.12336752616175, 57.561814845439386]}}, {"type": "Feature", "properties": {"norad_id": 34071, "name": "IRIDIUM 33 DEB", "group": "iridium-33-debris", "lat": 51.86184947715824, "lon": -163.39470794997396, "alt_km": 716.0989009681298, "timestamp": "2025-12-04T19:33:59.984950+00:00", "meta": {"OBJECT_NAME": "IRIDIUM 33 DEB", "OBJECT_ID": "1997-051CE", "EPOCH": "2025-12-04T02:24:35.020512", "MEAN_MOTION": 14.49404394, "ECCENTRICITY": 0.0009494, "INCLINATION": 86.3465, "RA_OF_ASC_NODE": 21.5834, "ARG_OF_PERICENTER": 130.9901, "MEAN_ANOMALY": 229.2125, "EPHEMERIS_TYPE": 0, "CLASSIFICATION_TYPE": "U", "NORAD_CAT_ID": 34071, "ELEMENT_SET_NO": 999, "REV_AT_EPOCH": 88209, "BSTAR": 0.0012417488, "MEAN_MOTION_DOT": 4.769e-05, "MEAN_MOTION_DDOT": 0}, "tle": {"line1": "1 34071U 97051CE  25338.10040533  .00004769  00000+0  12417-2 0  9996", "line2": "2 34071  86.3465  21.5834 0009494 130.9901 229.2125 14.49404394882093"}}, "geometry": {"type": "Point", "coordinates": [-163.39470794997396, 51.86184947715824]}}]}